FLOCK 4H-30             
1 66733U 25276BV  25356.63359879  .00025007  00000+0  12569-2 0  9996
2 66733  97.4437  68.2255 0003296 267.9679  92.1177 15.17239498  3622
FLOCK 4H-31             
1 66734U 25276BW  25357.16111197 -.00053784  00000+0 -27326-2 0  9997
2 66734  97.4364  68.7242 0005288 323.6856  36.4018 15.17093447  3709
FLOCK 4H-32             
1 66735U 25276BX  25357.16150949  .00010570  00000+0  53434-3 0  9990
2 66735  97.4427  68.7416 0003593 258.3605 101.7225 15.17229382  3701
FLOCK 4H-33             
1 66736U 25276BY  25357.07878630  .00012063  00000+0  59109-3 0  9999
2 66736  97.4429  68.6989 0002740 158.6749 201.4600 15.18290461  3692
FLOCK 4H-34             
1 66737U 25276BZ  25357.01450003  .00183041  00000+0  86760-2 0  9991
2 66737  97.4441  68.6368 0002632 197.3372 162.7773 15.18452906  2930
FLOCK 4H-35             
1 66738U 25276CA  25357.07884186  .00007713  00000+0  37983-3 0  9996
2 66738  97.4404  68.6906 0002387 148.1060 212.0319 15.18243833  2980
FLOCK 4H-36             
1 66739U 25276CB  25357.08291815  .00010710  00000+0  52968-3 0  9990
2 66739  97.4451  68.7020 0002449 183.1538 176.9681 15.17996421  3695
TRANSPORTER-15CC        
1 66740U 25276CC  25357.15366492  .00011433  00000+0  56975-3 0  9999
2 66740  97.4411  68.7510 0002156 237.2728 122.8298 15.17715511  3709
TRANSPORTER-15CD        
1 66741U 25276CD  25357.15465387  .00004502  00000+0  22717-3 0  9999
2 66741  97.4410  68.7415 0001020 227.7467 132.3680 15.17617778  3703
TRANSPORTER-15CE        
1 66742U 25276CE  25357.15310913  .00010283  00000+0  51299-3 0  9994
2 66742  97.4403  68.7413 0001639 189.8368 170.2833 15.17704611  3702
TRANSPORTER-15CF        
1 66743U 25276CF  25357.15705692 -.00073421  00000+0 -37799-2 0  9990
2 66743  97.4401  68.7361 0001611  34.8823 325.2515 15.16749182  3708
TRANSPORTER-15CG        
1 66744U 25276CG  25357.02426366 -.00722303  00000+0 -35805-1 0  9990
2 66744  97.4248  68.6225 0024572 243.3371 116.5347 15.19817649  3680
TRANSPORTER-15CH        
1 66745U 25276CH  25357.02510419  .00004450  00000+0  22584-3 0  9990
2 66745  97.4414  68.6150 0001453 239.2055 120.9036 15.17424220  3680
TRANSPORTER-15CJ        
1 66746U 25276CJ  25356.43123013  .00013472  00000+0  67533-3 0  9992
2 66746  97.4408  68.0277 0002532 254.7861 105.3092 15.17466775  3594
W-SERIES 5              
1 66747U 25276CK  25357.15518527  .00006366  00000+0  32052-3 0  9993
2 66747  97.4412  68.7431 0001435 205.9301 154.1861 15.17541126  3700
TRANSPORTER-15CL        
1 66748U 25276CL  25357.01460186 -.00148740  00000+0 -74238-2 0  9992
2 66748  97.4408  68.6232 0001591 172.2835 187.8424 15.18206426  3682
TRANSPORTER-15CM        
1 66749U 25276CM  25357.08502382  .00008768  00000+0  43589-3 0  9994
2 66749  97.4403  68.6792 0001883 189.8210 170.2987 15.17873251  3690
TRANSPORTER-15CN        
1 66750U 25276CN  25357.08190122  .00010984  00000+0  54253-3 0  9994
2 66750  97.4439  68.6986 0002090 151.8311 208.3036 15.18037442  3691
ICEYE-X58               
1 66751U 25276CP  25357.08537338  .00006730  00000+0  33612-3 0  9999
2 66751  97.4414  68.6868 0002360 207.0257 153.0854 15.17802572  3694
ICEYE-X59               
1 66752U 25276CQ  25357.15437860  .00006650  00000+0  33402-3 0  9995
2 66752  97.4407  68.7472 0001925 236.2427 123.8624 15.17604842  3700
ICEYE-X60               
1 66753U 25276CR  25356.69659553 -.00106457  00000+0 -54397-2 0  9992
2 66753  97.4410  68.2849 0001104 193.8242 166.2962 15.17180475  3639
ICEYE-X61               
1 66754U 25276CS  25357.08449771  .00006300  00000+0  31444-3 0  9999
2 66754  97.4407  68.6829 0002300 193.7676 166.3496 15.17846381  3691
ICEYE-X62               
1 66755U 25276CT  25356.95678672  .00001393  00000+0  72638-4 0  9997
2 66755  97.4395  68.5434 0002683 290.3052  69.7893 15.17604649  3679
TRANSPORTER-15CU        
1 66756U 25276CU  25357.08342110  .00007607  00000+0  37791-3 0  9992
2 66756  97.4415  68.6881 0001534 158.8080 201.3217 15.17943465  3691
TRANSPORTER-15CV        
1 66757U 25276CV  25357.01609359  .00011453  00000+0  56501-3 0  9991
2 66757  97.4425  68.6285 0001663 156.6190 203.5120 15.18068998  3688
TRANSPORTER-15CW        
1 66758U 25276CW  25357.01582066  .00008268  00000+0  40892-3 0  9993
2 66758  97.4395  68.6188 0001307 139.5376 220.5955 15.18071056  3682
TRANSPORTER-15CX        
1 66759U 25276CX  25357.01416301  .00013274  00000+0  65148-3 0  9996
2 66759  97.4382  68.6162 0002219 149.1360 211.0005 15.18212240  3687
TRANSPORTER-15CY        
1 66760U 25276CY  25357.01378875  .00010188  00000+0  50130-3 0  9997
2 66760  97.4400  68.6233 0001610 113.7895 246.3508 15.18191391  3685
TRANSPORTER-15CZ        
1 66761U 25276CZ  25357.07713797  .00011670  00000+0  56899-3 0  9995
2 66761  97.4399  68.6912 0001639 124.8277 235.3111 15.18474491  3699
HYDROGNSS-1             
1 66762U 25276DA  25357.15903440  .00009053  00000+0  45730-3 0  9995
2 66762  97.4408  68.7381 0000978 260.7884  99.3239 15.17306539  3708
HYDROGNSS-2             
1 66763U 25276DB  25356.43161399  .00003929  00000+0  19983-3 0  9992
2 66763  97.4416  68.0320 0001386 244.5475 115.5615 15.17420203  3595
TRANSPORTER-15DC        
1 66764U 25276DC  25357.15255875  .00009187  00000+0  45882-3 0  9995
2 66764  97.4406  68.7450 0002058 195.4176 164.6995 15.17697520  3702
TRANSPORTER-15DD        
1 66765U 25276DD  25357.13964135  .00014138  00000+0  68330-3 0  9995
2 66765  97.4424  68.7675 0001921 117.9460 242.1969 15.18733187  3709
TRANSPORTER-15DE        
1 66766U 25276DE  25357.07654056  .00011311  00000+0  55252-3 0  9996
2 66766  97.4362  68.6813 0002032  88.0903 272.0564 15.18414562  3692
TRANSPORTER-15DF        
1 66767U 25276DF  25357.07737590  .00009828  00000+0  48195-3 0  9990
2 66767  97.4371  68.6825 0002082  89.6558 270.4915 15.18317222  3691
TRANSPORTER-15DG        
1 66768U 25276DG  25357.14113418  .00012357  00000+0  60133-3 0  9993
2 66768  97.4355  68.7462 0002224  78.1887 281.9597 15.18525171  3707
TRANSPORTER-15DH        
1 66769U 25276DH  25357.14204600  .00006340  00000+0  31141-3 0  9990
2 66769  97.4418  68.7631 0002692 106.9621 253.1908 15.18403530  3702
TRANSPORTER-15DJ        
1 66770U 25276DJ  25357.14171109  .00009674  00000+0  47336-3 0  9995
2 66770  97.4450  68.7739 0003141 121.2767 238.8775 15.18396934  3701
TRANSPORTER-15DK        
1 66771U 25276DK  25357.14127339  .00010635  00000+0  51887-3 0  9997
2 66771  97.4443  68.7716 0002956 112.4527 247.7020 15.18472394  3705
TRANSPORTER-15DL        
1 66772U 25276DL  25357.13891468  .00009888  00000+0  47977-3 0  9991
2 66772  97.4437  68.7717 0002966 101.9487 258.2080 15.18686186  3708
TRANSPORTER-15DM        
1 66773U 25276DM  25357.14012422  .00007289  00000+0  35624-3 0  9997
2 66773  97.4433  68.7693 0003139 101.0681 259.0907 15.18526197  3700
TRANSPORTER-15DN        
1 66774U 25276DN  25357.07372737  .00008840  00000+0  43061-3 0  9996
2 66774  97.4419  68.7008 0003016  99.1247 261.0329 15.18581886  3699
PHI 1                   
1 66775U 25276DP  25357.13883858  .00011121  00000+0  53958-3 0  9997
2 66775  97.4342  68.7452 0002851  68.1193 292.0344 15.18652826  3706
TRANSPORTER-15DQ        
1 66776U 25276DQ  25357.07258419  .00012207  00000+0  59121-3 0  9994
2 66776  97.4382  68.6917 0002902  84.0058 276.1507 15.18694394  3698
TRANSPORTER-15DR        
1 66777U 25276DR  25357.13613025  .00013004  00000+0  62542-3 0  9997
2 66777  97.4470  68.7858 0003507 111.4370 248.7239 15.18921612  3701
TRANSPORTER-15DS        
1 66778U 25276DS  25352.80997675  .00004904  00000+0  25484-3 0  9996
2 66778  97.4427  64.4586 0003231  41.3734 318.7744 15.16535337  3043
STARLINK-35867          
1 66791U 25278A   25357.16668980 -.00021712  00000+0 -36531-3 0  9994
2 66791  42.9996 189.2503 0001954 261.7494 130.4808 15.50575828  4633
STARLINK-35990          
1 66792U 25278B   25357.16668980  .00055004  00000+0  93859-3 0  9990
2 66792  42.9994 189.2457 0001715 255.9583 138.2098 15.50525378  4631
STARLINK-36051          
1 66793U 25278C   25357.16668980 -.00062032  00000+0 -10595-2 0  9997
2 66793  42.9995 189.2356 0001680 253.2064 144.7830 15.50588580  4536
STARLINK-36062          
1 66794U 25278D   25357.16668980  .00055411  00000+0  94554-3 0  9997
2 66794  42.9995 189.2409 0002159 260.2988 135.7885 15.50521870  4631
STARLINK-36047          
1 66795U 25278E   25357.16668980  .00048693  00000+0  83210-3 0  9999
2 66795  42.9995 189.2320 0001682 252.2556 147.6621 15.50530362  4531
STARLINK-35964          
1 66796U 25278F   25357.01102367  .00410276  00000+0  19554-2 0  9995
2 66796  42.9914 188.0511 0002245 289.9110  70.1520 15.80936741  3475
STARLINK-36099          
1 66797U 25278G   25357.16668980 -.00068313  00000+0 -11682-2 0  9997
2 66797  42.9997 189.2212 0001858 254.6995 149.0414 15.50591636  4697
STARLINK-36041          
1 66798U 25278H   25357.16668980  .00056116  00000+0  95753-3 0  9996
2 66798  42.9996 189.2166 0002076 262.5445 143.1304 15.50518579  4470
STARLINK-36044          
1 66799U 25278J   25357.16668980  .00059063  00000+0  10070-2 0  9999
2 66799  42.9997 189.2126 0001624 248.6004 158.9849 15.50523893  4633
STARLINK-35996          
1 66800U 25278K   25357.16668980 -.00078904  00000+0 -13518-2 0  9999
2 66800  42.9996 189.2020 0001761 267.8702 143.5368 15.50597807  4427
STARLINK-36080          
1 66801U 25278L   25357.16668980  .00058005  00000+0  98942-3 0  9993
2 66801  42.9995 189.1772 0002207 262.3125 158.6991 15.50515827  4639
STARLINK-35604          
1 66802U 25278M   25357.16668980  .00049942  00000+0  85321-3 0  9991
2 66802  42.9995 189.2070 0002085 262.5076 146.9991 15.50527689  4632
STARLINK-35565          
1 66803U 25278N   25357.16668980  .00071085  00000+0  12094-2 0  9991
2 66803  42.9998 189.1977 0002144 255.9936 157.3492 15.50511466  4726
